STARLINK-3664           
1 51984U 22025AE  25209.62549973 -.00000065  00000+0  13992-4 0  9990
2 51984  53.2196 325.0720 0001255  88.9881 271.1255 15.08833118188333
STARLINK-3651           
1 51985U 22025AF  25210.04500239  .00000035  00000+0  20279-4 0  9993
2 51985  53.2198 323.1133 0001375  82.3343 277.7805 15.08842200188387
STARLINK-3645           
1 51986U 22025AG  25209.59507014 -.00000143  00000+0  90832-5 0  9994
2 51986  53.2197 324.9688 0001300  87.5949 272.5192 15.08835489187234
STARLINK-3644           
1 51987U 22025AH  25210.02196770  .00000421  00000+0  44516-4 0  9993
2 51987  53.2203 323.2050 0001175  91.6093 268.5034 15.08839601188381
STARLINK-3640           
1 51988U 22025AJ  25209.60612633 -.00000342  00000+0 -34288-5 0  9997
2 51988  53.2181 325.0716 0001177  89.1239 270.9888 15.08833998187232
STARLINK-3642           
1 51989U 22025AK  25209.62084990 -.00000926  00000+0 -40114-4 0  9991
2 51989  53.2203 325.0054 0001272  89.8426 270.2712 15.08837616187234
STARLINK-3657           
1 51990U 22025AL  25209.58956860 -.00000591  00000+0 -19062-4 0  9998
2 51990  53.2181 305.1454 0001115  87.6853 272.4267 15.08837360187505
STARLINK-3652           
1 51991U 22025AM  25209.61349068 -.00000193  00000+0  59644-5 0  9997
2 51991  53.2195 325.0381 0001173  87.6896 272.4230 15.08830316187236
STARLINK-3643           
1 51992U 22025AN  25209.57852910 -.00000735  00000+0 -28098-4 0  9999
2 51992  53.2184 305.1961 0001006 114.8969 245.2128 15.08845285187074
STARLINK-3648           
1 51993U 22025AP  25209.60244746 -.00001510  00000+0 -76842-4 0  9998
2 51993  53.2182 325.0884 0001246  88.7148 271.3986 15.08834630187234
STARLINK-3647           
1 51994U 22025AQ  25209.57484812 -.00000506  00000+0 -13699-4 0  9990
2 51994  53.2186 305.2126 0001118  97.5353 262.5767 15.08835931188619
STARLINK-3636           
1 51995U 22025AR  25209.98332734  .00000002  00000+0  18221-4 0  9996
2 51995  53.2184 303.3780 0001147  85.3966 274.7157 15.08838067188655
STARLINK-3538           
1 51996U 22025AS  25209.57116929 -.00000301  00000+0 -81631-6 0  9999
2 51996  53.2185 305.2310 0001208  96.6448 263.4681 15.08835297187080
STARLINK-3589           
1 51997U 22025AT  25209.97964562  .00000233  00000+0  32707-4 0  9998
2 51997  53.2182 303.3934 0001208  87.1103 273.0027 15.08839329188657
STARLINK-3618           
1 51998U 22025AU  25209.54172543 -.00000992  00000+0 -44278-4 0  9992
2 51998  53.2178 305.3629 0001166  80.0828 280.0295 15.08840044188599
STARLINK-3667           
1 51999U 22025AV  25209.96492878 -.00000231  00000+0  35887-5 0  9997
2 51999  53.2196 303.4529 0001333  98.3602 261.7541 15.08837363188653
STARLINK-3653           
1 52000U 22025AW  25209.99067515 -.00000041  00000+0  15488-4 0  9993
2 52000  53.2181 303.2589 0001186  91.6463 268.4665 15.08841394188685
STARLINK-3659           
1 52001U 22025AX  25209.53900079 -.00004875  00000+0 -28827-3 0  9995
2 52001  53.2186 305.3850 0001076  81.8871 278.2243 15.08860329187080
STARLINK-3668           
1 52002U 22025AY  25209.53804795 -.00000166  00000+0  76746-5 0  9997
2 52002  53.2180 305.4175 0001141  89.6357 270.4766 15.08841386187080
STARLINK-3537           
1 52088U 22029A   25210.34626278  .00541086  15994-3  58639-3 0  9995
2 52088  53.2002 209.9036 0000464 322.4024 115.6067 16.09345075189203
STARLINK-3722           
1 52089U 22029B   25209.73400427 -.00000036  00000+0  15797-4 0  9996
2 52089  53.2196  14.4972 0001290  91.6585 268.4555 15.08840573186848
STARLINK-3712           
1 52090U 22029C   25209.19304752 -.00000392  00000+0 -65627-5 0  9996
2 52090  53.2181  16.9237 0001164  85.4106 274.7019 15.08836888186765
STARLINK-3716           
1 52092U 22029E   25209.66040234 -.00003392  00000+0 -19513-3 0  9996
2 52092  53.2186  14.8267 0001082  87.6411 272.4705 15.08842548186839
STARLINK-3673           
1 52093U 22029F   25209.71656391 -.00000313  00000+0 -15934-5 0  9995
2 52093  53.2186  14.5842 0001214  87.5058 272.6073 15.08838178186844
STARLINK-3714           
1 52094U 22029G   25209.71928881 -.00000877  00000+0 -37046-4 0  9994
2 52094  53.2187  14.5624 0001237  81.1366 278.9766 15.08840014186841
STARLINK-3701           
1 52095U 22029H   25209.77449939  .00012339  00000+0  79140-3 0  9997
2 52095  53.2186  14.3152 0001300  87.3735 272.7406 15.08866403186858
STARLINK-3717           
1 52096U 22029J   25209.75332793  .00002969  00000+0  20454-3 0  9997
2 52096  53.2185   4.4104 0001150  79.5330 280.5792 15.08843554186972
STARLINK-3665           
1 52098U 22029L   25210.17560155  .00000488  00000+0  48738-4 0  9992
2 52098  53.2185  12.5133 0001276  86.6761 273.4377 15.08845213186910
STARLINK-3702           
1 52100U 22029N   25210.16824962 -.00000472  00000+0 -11538-4 0  9997
2 52100  53.2193  12.5480 0001350  87.8844 272.2303 15.08838161186916
STARLINK-3703           
1 52101U 22029P   25209.78187307 -.00000185  00000+0  64594-5 0  9990
2 52101  53.2187  14.4732 0001439  87.0958 273.0198 15.08836769186842
