OBJECT_NAME,OBJECT_ID,EPOCH,MEAN_MOTION,ECCENTRICITY,INCLINATION,RA_OF_ASC_NODE,ARG_OF_PERICENTER,MEAN_ANOMALY,EPHEMERIS_TYPE,CLASSIFICATION_TYPE,NORAD_CAT_ID,ELEMENT_SET_NO,REV_AT_EPOCH,BSTAR,MEAN_MOTION_DOT,MEAN_MOTION_DDOT
STARLINK-3664,2022-025AE,2025-07-28T15:00:43.176672,15.08833118,.0001255,53.2196,325.0720,88.9881,271.1255,0,U,51984,999,18833,.13992E-4,-.65E-6,0
STARLINK-3651,2022-025AF,2025-07-29T01:04:48.206496,15.08842200,.0001375,53.2198,323.1133,82.3343,277.7805,0,U,51985,999,18838,.20279E-4,.35E-6,0
STARLINK-3645,2022-025AG,2025-07-28T14:16:54.060096,15.08835489,.00013,53.2197,324.9688,87.5949,272.5192,0,U,51986,999,18723,.90832E-5,-.143E-5,0
STARLINK-3644,2022-025AH,2025-07-29T00:31:38.009280,15.08839601,.0001175,53.2203,323.2050,91.6093,268.5034,0,U,51987,999,18838,.44516E-4,.421E-5,0
STARLINK-3640,2022-025AJ,2025-07-28T14:32:49.314912,15.08833998,.0001177,53.2181,325.0716,89.1239,270.9888,0,U,51988,999,18723,-.34288E-5,-.342E-5,0
STARLINK-3642,2022-025AK,2025-07-28T14:54:01.431360,15.08837616,.0001272,53.2203,325.0054,89.8426,270.2712,0,U,51989,999,18723,-.40114E-4,-.926E-5,0
STARLINK-3657,2022-025AL,2025-07-28T14:08:58.727040,15.08837360,.0001115,53.2181,305.1454,87.6853,272.4267,0,U,51990,999,18750,-.19062E-4,-.591E-5,0
STARLINK-3652,2022-025AM,2025-07-28T14:43:25.594752,15.08830316,.0001173,53.2195,325.0381,87.6896,272.4230,0,U,51991,999,18723,.59644E-5,-.193E-5,0
STARLINK-3643,2022-025AN,2025-07-28T13:53:04.914240,15.08845285,.0001006,53.2184,305.1961,114.8969,245.2128,0,U,51992,999,18707,-.28098E-4,-.735E-5,0
STARLINK-3648,2022-025AP,2025-07-28T14:27:31.460544,15.08834630,.0001246,53.2182,325.0884,88.7148,271.3986,0,U,51993,999,18723,-.76842E-4,-.151E-4,0
STARLINK-3647,2022-025AQ,2025-07-28T13:47:46.877568,15.08835931,.0001118,53.2186,305.2126,97.5353,262.5767,0,U,51994,999,18861,-.13699E-4,-.506E-5,0
STARLINK-3636,2022-025AR,2025-07-28T23:35:59.482176,15.08838067,.0001147,53.2184,303.3780,85.3966,274.7157,0,U,51995,999,18865,.18221E-4,.2E-7,0
STARLINK-3538,2022-025AS,2025-07-28T13:42:29.026656,15.08835297,.0001208,53.2185,305.2310,96.6448,263.4681,0,U,51996,999,18708,-.81631E-6,-.301E-5,0
STARLINK-3589,2022-025AT,2025-07-28T23:30:41.381568,15.08839329,.0001208,53.2182,303.3934,87.1103,273.0027,0,U,51997,999,18865,.32707E-4,.233E-5,0
STARLINK-3618,2022-025AU,2025-07-28T13:00:05.077152,15.08840044,.0001166,53.2178,305.3629,80.0828,280.0295,0,U,51998,999,18859,-.44278E-4,-.992E-5,0
STARLINK-3667,2022-025AV,2025-07-28T23:09:29.846592,15.08837363,.0001333,53.2196,303.4529,98.3602,261.7541,0,U,51999,999,18865,.35887E-5,-.231E-5,0
STARLINK-3653,2022-025AW,2025-07-28T23:46:34.332960,15.08841394,.0001186,53.2181,303.2589,91.6463,268.4665,0,U,52000,999,18868,.15488E-4,-.41E-6,0
STARLINK-3659,2022-025AX,2025-07-28T12:56:09.668256,15.08860329,.0001076,53.2186,305.3850,81.8871,278.2243,0,U,52001,999,18708,-.28827E-3,-.4875E-4,0
STARLINK-3668,2022-025AY,2025-07-28T12:54:47.342880,15.08841386,.0001141,53.2180,305.4175,89.6357,270.4766,0,U,52002,999,18708,.76746E-5,-.166E-5,0
STARLINK-3537,2022-029A,2025-07-29T08:18:37.104192,16.09345075,.0000464,53.2002,209.9036,322.4024,115.6067,0,U,52088,999,18920,.58639E-3,.541086E-2,.15994E-3
STARLINK-3722,2022-029B,2025-07-28T17:36:57.968928,15.08840573,.000129,53.2196,14.4972,91.6585,268.4555,0,U,52089,999,18684,.15797E-4,-.36E-6,0
STARLINK-3712,2022-029C,2025-07-28T04:37:59.305728,15.08836888,.0001164,53.2181,16.9237,85.4106,274.7019,0,U,52090,999,18676,-.65627E-5,-.392E-5,0
STARLINK-3716,2022-029E,2025-07-28T15:50:58.762176,15.08842548,.0001082,53.2186,14.8267,87.6411,272.4705,0,U,52092,999,18683,-.19513E-3,-.3392E-4,0
STARLINK-3673,2022-029F,2025-07-28T17:11:51.121824,15.08838178,.0001214,53.2186,14.5842,87.5058,272.6073,0,U,52093,999,18684,-.15934E-5,-.313E-5,0
STARLINK-3714,2022-029G,2025-07-28T17:15:46.553184,15.08840014,.0001237,53.2187,14.5624,81.1366,278.9766,0,U,52094,999,18684,-.37046E-4,-.877E-5,0
STARLINK-3701,2022-029H,2025-07-28T18:35:16.747296,15.08866403,.00013,53.2186,14.3152,87.3735,272.7406,0,U,52095,999,18685,.7914E-3,.12339E-3,0
STARLINK-3717,2022-029J,2025-07-28T18:04:47.533152,15.08843554,.000115,53.2185,4.4104,79.5330,280.5792,0,U,52096,999,18697,.20454E-3,.2969E-4,0
STARLINK-3665,2022-029L,2025-07-29T04:12:51.973920,15.08845213,.0001276,53.2185,12.5133,86.6761,273.4377,0,U,52098,999,18691,.48738E-4,.488E-5,0
STARLINK-3702,2022-029N,2025-07-29T04:02:16.767168,15.08838161,.000135,53.2193,12.5480,87.8844,272.2303,0,U,52100,999,18691,-.11538E-4,-.472E-5,0
STARLINK-3703,2022-029P,2025-07-28T18:45:53.833248,15.08836769,.0001439,53.2187,14.4732,87.0958,273.0198,0,U,52101,999,18684,.64594E-5,-.185E-5,0
